{
  "type": "FeatureCollection",
  "features": [
    {
      "type": "Feature",
      "properties": {
        "norad_id": 66650,
        "name": "BEE-1000",
        "group": "last-30-days",
        "lat": -6.951353813028065,
        "lon": 89.20478635154848,
        "alt_km": 595.415916093526,
        "timestamp": "2025-12-08T21:31:03.448630+00:00",
        "meta_object_name": "BEE-1000",
        "meta_object_id": "2025-274A",
        "meta_epoch": "2025-12-08T12:37:53.362848",
        "meta_mean_motion": 14.9163894,
        "meta_eccentricity": 0.00104434,
        "meta_inclination": 97.7386,
        "meta_ra_of_asc_node": 269.7914,
        "meta_arg_of_pericenter": 267.8664,
        "meta_mean_anomaly": 92.1359,
        "meta_ephemeris_type": 0,
        "meta_classification_type": "U",
        "meta_norad_cat_id": 66650,
        "meta_element_set_no": 999,
        "meta_rev_at_epoch": 177,
        "meta_bstar": 0.00028793394,
        "meta_mean_motion_dot": 2.839e-05,
        "meta_mean_motion_ddot": 0,
        "tle_line1": "1 66650U 25274A   25342.52631207  .00002839  00000+0  28793-3 0  9998",
        "tle_line2": "2 66650  97.7386 269.7914 0010443 267.8664  92.1359 14.91638940  1773"
      },
      "geometry": {
        "type": "Point",
        "coordinates": [
          89.20478635154848,
          -6.951353813028065
        ]
      }
    },
    {
      "type": "Feature",
      "properties": {
        "norad_id": 66651,
        "name": "2025-274B",
        "group": "last-30-days",
        "lat": -10.18070859831454,
        "lon": 88.75612014864168,
        "alt_km": 594.8690566799069,
        "timestamp": "2025-12-08T21:31:03.448645+00:00",
        "meta_object_name": "2025-274B",
        "meta_object_id": "2025-274B",
        "meta_epoch": "2025-12-08T12:37:03.139392",
        "meta_mean_motion": 14.91747436,
        "meta_eccentricity": 0.0010778,
        "meta_inclination": 97.7384,
        "meta_ra_of_asc_node": 269.7914,
        "meta_arg_of_pericenter": 267.0326,
        "meta_mean_anomaly": 92.966,
        "meta_ephemeris_type": 0,
        "meta_classification_type": "U",
        "meta_norad_cat_id": 66651,
        "meta_element_set_no": 999,
        "meta_rev_at_epoch": 177,
        "meta_bstar": 0.0005916073,
        "meta_mean_motion_dot": 5.912e-05,
        "meta_mean_motion_ddot": 0,
        "tle_line1": "1 66651U 25274B   25342.52573078  .00005912  00000+0  59161-3 0  9998",
        "tle_line2": "2 66651  97.7384 269.7914 0010778 267.0326  92.9660 14.91747436  1774"
      },
      "geometry": {
        "type": "Point",
        "coordinates": [
          88.75612014864168,
          -10.18070859831454
        ]
      }
    },
    {
      "type": "Feature",
      "properties": {
        "norad_id": 66652,
        "name": "2025-274C",
        "group": "last-30-days",
        "lat": -16.323953664409984,
        "lon": 87.87632132516968,
        "alt_km": 595.2790185019285,
        "timestamp": "2025-12-08T21:31:03.448656+00:00",
        "meta_object_name": "2025-274C",
        "meta_object_id": "2025-274C",
        "meta_epoch": "2025-12-08T12:35:25.950624",
        "meta_mean_motion": 14.91867776,
        "meta_eccentricity": 0.00104174,
        "meta_inclination": 97.7389,
        "meta_ra_of_asc_node": 269.7937,
        "meta_arg_of_pericenter": 273.9468,
        "meta_mean_anomaly": 86.056,
        "meta_ephemeris_type": 0,
        "meta_classification_type": "U",
        "meta_norad_cat_id": 66652,
        "meta_element_set_no": 999,
        "meta_rev_at_epoch": 177,
        "meta_bstar": 0.00037356159,
        "meta_mean_motion_dot": 3.722e-05,
        "meta_mean_motion_ddot": 0,
        "tle_line1": "1 66652U 25274C   25342.52460591  .00003722  00000+0  37356-3 0  9993",
        "tle_line2": "2 66652  97.7389 269.7937 0010417 273.9468  86.0560 14.91867776  1771"
      },
      "geometry": {
        "type": "Point",
        "coordinates": [
          87.87632132516968,
          -16.323953664409984
        ]
      }
    },
    {
      "type": "Feature",
      "properties": {
        "norad_id": 66653,
        "name": "2025-274D",
        "group": "last-30-days",
        "lat": -16.618009984181366,
        "lon": 87.8327642033166,
        "alt_km": 594.564921629747,
        "timestamp": "2025-12-08T21:31:03.448666+00:00",
        "meta_object_name": "2025-274D",
        "meta_object_id": "2025-274D",
        "meta_epoch": "2025-12-08T14:11:55.941216",
        "meta_mean_motion": 14.91872372,
        "meta_eccentricity": 0.00112894,
        "meta_inclination": 97.7387,
        "meta_ra_of_asc_node": 269.8594,
        "meta_arg_of_pericenter": 269.5939,
        "meta_mean_anomaly": 90.3986,
        "meta_ephemeris_type": 0,
        "meta_classification_type": "U",
        "meta_norad_cat_id": 66653,
        "meta_element_set_no": 999,
        "meta_rev_at_epoch": 178,
        "meta_bstar": 0.00038383734,
        "meta_mean_motion_dot": 3.827e-05,
        "meta_mean_motion_ddot": 0,
        "tle_line1": "1 66653U 25274D   25342.59161969  .00003827  00000+0  38384-3 0  9996",
        "tle_line2": "2 66653  97.7387 269.8594 0011289 269.5939  90.3986 14.91872372  1781"
      },
      "geometry": {
        "type": "Point",
        "coordinates": [
          87.8327642033166,
          -16.618009984181366
        ]
      }
    },
    {
      "type": "Feature",
      "properties": {
        "norad_id": 66654,
        "name": "JACK E",
        "group": "last-30-days",
        "lat": -23.801819736638727,
        "lon": 86.72350705208453,
        "alt_km": 593.7806315088656,
        "timestamp": "2025-12-08T21:31:03.448676+00:00",
        "meta_object_name": "JACK E",
        "meta_object_id": "2025-274E",
        "meta_epoch": "2025-12-08T07:43:44.814144",
        "meta_mean_motion": 14.92044006,
        "meta_eccentricity": 0.00118548,
        "meta_inclination": 97.739,
        "meta_ra_of_asc_node": 269.5982,
        "meta_arg_of_pericenter": 272.2278,
        "meta_mean_anomaly": 87.7583,
        "meta_ephemeris_type": 0,
        "meta_classification_type": "U",
        "meta_norad_cat_id": 66654,
        "meta_element_set_no": 999,
        "meta_rev_at_epoch": 174,
        "meta_bstar": 0.00041229952,
        "meta_mean_motion_dot": 4.134e-05,
        "meta_mean_motion_ddot": 0,
        "tle_line1": "1 66654U 25274E   25342.32204646  .00004134  00000+0  41230-3 0  9994",
        "tle_line2": "2 66654  97.7390 269.5982 0011854 272.2278  87.7583 14.92044006  1744"
      },
      "geometry": {
        "type": "Point",
        "coordinates": [
          86.72350705208453,
          -23.801819736638727
        ]
      }
    },
    {
      "type": "Feature",
      "properties": {
        "norad_id": 66655,
        "name": "2025-274F",
        "group": "last-30-days",
        "lat": -33.589474029057726,
        "lon": 84.98742805111084,
        "alt_km": 597.6626513751535,
        "timestamp": "2025-12-08T21:31:03.448686+00:00",
        "meta_object_name": "2025-274F",
        "meta_object_id": "2025-274F",
        "meta_epoch": "2025-12-08T12:31:00.607584",
        "meta_mean_motion": 14.92495059,
        "meta_eccentricity": 0.00055016,
        "meta_inclination": 97.7329,
        "meta_ra_of_asc_node": 269.7968,
        "meta_arg_of_pericenter": 325.2588,
        "meta_mean_anomaly": 34.8271,
        "meta_ephemeris_type": 0,
        "meta_classification_type": "U",
        "meta_norad_cat_id": 66655,
        "meta_element_set_no": 999,
        "meta_rev_at_epoch": 177,
        "meta_bstar": 0.0014211511,
        "meta_mean_motion_dot": 0.00014557,
        "meta_mean_motion_ddot": 0,
        "tle_line1": "1 66655U 25274F   25342.52153481  .00014557  00000+0  14212-2 0  9996",
        "tle_line2": "2 66655  97.7329 269.7968 0005501 325.2588  34.8271 14.92495059  1776"
      },
      "geometry": {
        "type": "Point",
        "coordinates": [
          84.98742805111084,
          -33.589474029057726
        ]
      }
    },
    {
      "type": "Feature",
      "properties": {
        "norad_id": 66656,
        "name": "2025-274G",
        "group": "last-30-days",
        "lat": -31.69984657137742,
        "lon": 85.34757629492138,
        "alt_km": 592.7115071359976,
        "timestamp": "2025-12-08T21:31:03.448695+00:00",
        "meta_object_name": "2025-274G",
        "meta_object_id": "2025-274G",
        "meta_epoch": "2025-12-08T12:31:22.949760",
        "meta_mean_motion": 14.92234576,
        "meta_eccentricity": 0.00124897,
        "meta_inclination": 97.7388,
        "meta_ra_of_asc_node": 269.7972,
        "meta_arg_of_pericenter": 273.2394,
        "meta_mean_anomaly": 86.7396,
        "meta_ephemeris_type": 0,
        "meta_classification_type": "U",
        "meta_norad_cat_id": 66656,
        "meta_element_set_no": 999,
        "meta_rev_at_epoch": 177,
        "meta_bstar": 0.00048564902,
        "meta_mean_motion_dot": 4.904e-05,
        "meta_mean_motion_ddot": 0,
        "tle_line1": "1 66656U 25274G   25342.52179340  .00004904  00000+0  48565-3 0  9993",
        "tle_line2": "2 66656  97.7388 269.7972 0012489 273.2394  86.7396 14.92234576  1776"
      },
      "geometry": {
        "type": "Point",
        "coordinates": [
          85.34757629492138,
          -31.69984657137742
        ]
      }
    }
  ]
}